[{"OBJECT_NAME":"STARLINK-31670","OBJECT_ID":"2024-071G","EPOCH":"2026-03-09T03:57:07.843104","MEAN_MOTION":15.27554228,"ECCENTRICITY":4.127e-5,"INCLINATION":42.9994,"RA_OF_ASC_NODE":354.1263,"ARG_OF_PERICENTER":293.6576,"MEAN_ANOMALY":66.4232,"EPHEMERIS_TYPE":0,"CLASSIFICATION_TYPE":"U","NORAD_CAT_ID":59490,"ELEMENT_SET_NO":999,"REV_AT_EPOCH":10799,"BSTAR":5.7863457e-5,"MEAN_MOTION_DOT":1.33e-5,"MEAN_MOTION_DDOT":0},{"OBJECT_NAME":"FLOCK 4G-23","OBJECT_ID":"2025-009AQ","EPOCH":"2026-03-09T17:11:57.175872","MEAN_MOTION":15.27262579,"ECCENTRICITY":9.048e-5,"INCLINATION":97.3979,"RA_OF_ASC_NODE":150.9478,"ARG_OF_PERICENTER":7.2707,"MEAN_ANOMALY":352.8545,"EPHEMERIS_TYPE":0,"CLASSIFICATION_TYPE":"U","NORAD_CAT_ID":62647,"ELEMENT_SET_NO":999,"REV_AT_EPOCH":6372,"BSTAR":0.00046815788,"MEAN_MOTION_DOT":0.0001244,"MEAN_MOTION_DDOT":0}]
